NORAD_CAT_ID,OBJECT_NAME,OBJECT_TYPE,EPOCH,MEAN_MOTION,ECCENTRICITY,INCLINATION,RA_OF_ASC_NODE,ARG_OF_PERICENTER,MEAN_ANOMALY,BSTAR,MEAN_MOTION_DOT,MEAN_MOTION_DDOT,TLE_LINE0,TLE_LINE1,TLE_LINE2,SEMIMAJOR_AXIS,PERIOD,APOGEE,PERIGEE,DECAYED
56460.0,STARLINK-6047,PAYLOAD,2024-04-17 05:32:57,14.98324501,0.0003121,69.9991,87.814,270.6835,89.3966,0.00065836,7.77e-05,0.0,0 STARLINK-6047,1 56460U 23064N   24108.23122395  .00007770  00000-0  65836-3 0  9990,2 56460  69.9991  87.8140 0003121 270.6835  89.3966 14.98324501 52030,6950.21,96.107,574.244,569.906,0.0
56460.0,STARLINK-6047,PAYLOAD,2024-04-17 08:45:13,14.98329401,0.0003111,69.9991,87.4774,269.5157,90.5645,0.00070191,8.292e-05,0.0,0 STARLINK-6047,1 56460U 23064N   24108.36474121  .00008292  00000-0  70191-3 0  9991,2 56460  69.9991  87.4774 0003111 269.5157  90.5645 14.98329401 51695,6950.195,96.107,574.222,569.898,0.0
56460.0,STARLINK-6047,PAYLOAD,2024-04-18 03:58:51,14.98333599,0.0002957,69.9993,85.4574,269.043,91.039,-0.00011011,-1.407e-05,0.0,0 STARLINK-6047,1 56460U 23064N   24109.16587021 -.00001407  00000-0 -11011-3 0  9993,2 56460  69.9993  85.4574 0002957 269.0430  91.0390 14.98333599 52179,6950.182,96.107,574.102,569.992,0.0
56460.0,STARLINK-6047,PAYLOAD,2024-04-18 08:47:15,14.98334081,0.000286,69.9995,84.9525,268.3305,91.7526,-0.0001133,-1.445e-05,0.0,0 STARLINK-6047,1 56460U 23064N   24109.36614929 -.00001445  00000-0 -11330-3 0  9999,2 56460  69.9995  84.9525 0002860 268.3305  91.7526 14.98334081 51845,6950.18,96.107,574.033,570.058,0.0
56460.0,STARLINK-6047,PAYLOAD,2024-04-19 04:00:51,14.98335132,0.0003028,69.9998,82.9333,267.0772,93.0041,-1.1437e-05,-2.29e-06,0.0,0 STARLINK-6047,1 56460U 23064N   24110.16726392 -.00000229  00000-0 -11437-4 0  9995,2 56460  69.9998  82.9333 0003028 267.0772  93.0041 14.98335132 52323,6950.177,96.107,574.147,569.938,0.0
56460.0,STARLINK-6047,PAYLOAD,2024-04-19 07:13:08,14.98325133,0.0002829,69.9995,82.5968,268.2969,91.7866,-0.000193,-2.395e-05,0.0,0 STARLINK-6047,1 56460U 23064N   24110.30079353 -.00002395  00000-0 -19300-3 0  9991,2 56460  69.9995  82.5968 0002829 268.2969  91.7866 14.98325133 52341,6950.208,96.107,574.039,570.107,0.0
56460.0,STARLINK-6047,PAYLOAD,2024-04-19 21:38:21,14.98316623,0.0003198,69.9987,81.08,267.3516,92.7277,6.5498e-05,6.88e-06,0.0,0 STARLINK-6047,1 56460U 23064N   24110.90163709  .00000688  00000-0  65498-4 0  9997,2 56460  69.9987  81.0800 0003198 267.3516  92.7277 14.98316623 52070,6950.234,96.108,574.322,569.877,0.0
56460.0,STARLINK-6047,PAYLOAD,2024-04-20 08:51:17,14.98329441,0.0002427,70.0025,79.9052,243.5607,116.5303,0.00028311,3.287e-05,0.0,0 STARLINK-6047,1 56460U 23064N   24111.36895215  .00003287  00000-0  28311-3 0  9992,2 56460  70.0025  79.9052 0002427 243.5607 116.5303 14.98329441 52507,6950.195,96.107,573.746,570.373,0.0
56460.0,STARLINK-6047,PAYLOAD,2024-04-21 07:17:10,14.98327852,0.0002703,70.0024,77.5491,239.9456,120.1435,0.00010626,1.175e-05,0.0,0 STARLINK-6047,1 56460U 23064N   24112.30359491  .00001175  00000-0  10626-3 0  9992,2 56460  70.0024  77.5491 0002703 239.9456 120.1435 14.98327852 52281,6950.2,96.107,573.943,570.186,0.0
56460.0,STARLINK-6047,PAYLOAD,2024-04-21 21:42:22,14.9834149,0.0002834,70.0015,76.0315,262.7259,97.3578,0.00028804,3.347e-05,0.0,0 STARLINK-6047,1 56460U 23064N   24112.90442734  .00003347  00000-0  28804-3 0  9991,2 56460  70.0015  76.0315 0002834 262.7259  97.3578 14.98341490 52377,6950.157,96.106,573.992,570.053,0.0
56460.0,STARLINK-6047,PAYLOAD,2024-04-22 04:06:54,14.98346067,0.0002629,70.0021,75.3584,265.0585,95.0274,0.0003346,3.903e-05,0.0,0 STARLINK-6047,1 56460U 23064N   24113.17146349  .00003903  00000-0  33460-3 0  9996,2 56460  70.0021  75.3584 0002629 265.0585  95.0274 14.98346067 52771,6950.143,96.106,573.835,570.181,0.0
56460.0,STARLINK-6047,PAYLOAD,2024-04-22 07:19:10,14.98350584,0.0002475,70.0029,75.0237,262.3416,97.7462,0.0003909,4.577e-05,0.0,0 STARLINK-6047,1 56460U 23064N   24113.30498016  .00004577  00000-0  39090-3 0  9995,2 56460  70.0029  75.0237 0002475 262.3416  97.7462 14.98350584 52433,6950.129,96.106,573.714,570.274,0.0
56460.0,STARLINK-6047,PAYLOAD,2024-04-22 21:44:23,14.9833464,0.0001852,70.0059,73.5109,223.7975,136.3037,0.00075941,8.981e-05,0.0,0 STARLINK-6047,1 56460U 23064N   24113.90582531  .00008981  00000-0  75941-3 0  9995,2 56460  70.0059  73.5109 0001852 223.7975 136.3037 14.98334640 52529,6950.179,96.107,573.331,570.756,0.0
56460.0,STARLINK-6047,PAYLOAD,2024-04-23 04:08:55,14.98330825,0.0002655,70.0034,72.8412,237.9797,122.1104,0.00014585,1.648e-05,0.0,0 STARLINK-6047,1 56460U 23064N   24114.17286472  .00001648  00000-0  14585-3 0  9990,2 56460  70.0034  72.8412 0002655 237.9797 122.1104 14.98330825 52925,6950.19,96.107,573.901,570.21,0.0
56460.0,STARLINK-6047,PAYLOAD,2024-04-23 07:21:11,14.98331821,0.0002708,70.0018,72.5,255.9081,104.1777,5.4193e-05,5.54e-06,0.0,0 STARLINK-6047,1 56460U 23064N   24114.30638498  .00000554  00000-0  54193-4 0  9999,2 56460  70.0018  72.5000 0002708 255.9081 104.1777 14.98331821 52587,6950.187,96.107,573.934,570.17,0.0
56460.0,STARLINK-6047,PAYLOAD,2024-04-23 21:46:22,14.98365819,0.0002332,70.0023,70.9844,259.4103,100.6793,-0.0011479,-0.00013775,0.0,0 STARLINK-6047,1 56460U 23064N   24114.90720717 -.00013775  00000-0 -11479-2 0  9990,2 56460  70.0023  70.9844 0002332 259.4103 100.6793 14.98365819 52671,6950.082,96.105,573.568,570.326,0.0
56460.0,STARLINK-6047,PAYLOAD,2024-04-24 07:23:10,14.98359877,0.0002095,70.0032,69.9727,258.4697,101.6227,-0.00058976,-7.128e-05,0.0,0 STARLINK-6047,1 56460U 23064N   24115.30776494 -.00007128  00000-0 -58976-3 0  9997,2 56460  70.0032  69.9727 0002095 258.4697 101.6227 14.98359877 53099,6950.101,96.105,573.422,570.509,0.0
56460.0,STARLINK-6047,PAYLOAD,2024-04-24 21:48:24,14.98331282,0.0002082,70.0047,68.4592,238.6948,121.4008,0.00024364,2.815e-05,0.0,0 STARLINK-6047,1 56460U 23064N   24115.90862058  .00002815  00000-0  24364-3 0  9995,2 56460  70.0047  68.4592 0002082 238.6948 121.4008 14.98331282 52821,6950.189,96.107,573.501,570.607,0.0
56460.0,STARLINK-6047,PAYLOAD,2024-04-25 04:12:57,14.98325377,0.0002316,70.0025,67.7868,242.3803,117.7121,0.00014236,1.606e-05,0.0,0 STARLINK-6047,1 56460U 23064N   24116.17566451  .00001606  00000-0  14236-3 0  9997,2 56460  70.0025  67.7868 0002316 242.3803 117.7121 14.98325377 53224,6950.207,96.107,573.682,570.463,0.0
56460.0,STARLINK-6047,PAYLOAD,2024-04-25 05:49:05,14.98325398,0.0002317,70.0026,67.6185,242.782,117.3103,0.00013231,1.486e-05,0.0,0 STARLINK-6047,1 56460U 23064N   24116.24242443  .00001486  00000-0  13231-3 0  9997,2 56460  70.0026  67.6185 0002317 242.7820 117.3103 14.98325398 52879,6950.207,96.107,573.682,570.462,0.0
56460.0,STARLINK-6047,PAYLOAD,2024-04-25 21:50:25,14.98333853,0.0002499,70.0016,65.9342,251.0526,109.0363,3.4883e-05,3.23e-06,0.0,0 STARLINK-6047,1 56460U 23064N   24116.91002187  .00000323  00000-0  34883-4 0  9996,2 56460  70.0016  65.9342 0002499 251.0526 109.0363 14.98333853 52973,6950.181,96.107,573.783,570.309,0.0
56460.0,STARLINK-6047,PAYLOAD,2024-04-26 04:14:58,14.98333118,0.0002379,70.0026,65.2622,234.5971,125.4967,4.0519e-05,3.91e-06,0.0,0 STARLINK-6047,1 56460U 23064N   24117.17706032  .00000391  00000-0  40519-4 0  9993,2 56460  70.0026  65.2622 0002379 234.5971 125.4967 14.98333118 53376,6950.183,96.107,573.702,570.395,0.0
56460.0,STARLINK-6047,PAYLOAD,2024-04-26 13:51:46,14.98332965,0.0002252,70.0021,64.2492,268.0122,92.078,-3.9437e-05,-5.63e-06,0.0,0 STARLINK-6047,1 56460U 23064N   24117.57762256 -.00000563  00000-0 -39437-4 0  9997,2 56460  70.0021  64.2492 0002252 268.0122  92.0780 14.98332965 53073,6950.184,96.107,573.614,570.484,0.0
56460.0,STARLINK-6047,PAYLOAD,2024-04-26 21:52:26,14.98331248,0.0002526,70.0011,63.4078,265.0938,94.9933,0.00015181,1.719e-05,0.0,0 STARLINK-6047,1 56460U 23064N   24117.91141932  .00001719  00000-0  15181-3 0  9998,2 56460  70.0011  63.4078 0002526 265.0938  94.9933 14.98331248 53129,6950.189,96.107,573.81,570.298,0.0
56460.0,STARLINK-6047,PAYLOAD,2024-04-27 04:16:58,14.98341905,0.0002787,70.0003,62.7355,268.3844,91.6996,0.00021167,2.434e-05,0.0,0 STARLINK-6047,1 56460U 23064N   24118.17845159  .00002434  00000-0  21167-3 0  9995,2 56460  70.0003  62.7355 0002787 268.3844  91.6996 14.98341905 53529,6950.156,96.106,573.958,570.084,0.0
56460.0,STARLINK-6047,PAYLOAD,2024-04-27 13:53:47,14.98330404,0.0002253,70.0015,61.7247,268.422,91.6681,7.9673e-05,8.58e-06,0.0,0 STARLINK-6047,1 56460U 23064N   24118.57902106  .00000858  00000-0  79673-4 0  9999,2 56460  70.0015  61.7247 0002253 268.4220  91.6681 14.98330404 53228,6950.192,96.107,573.623,570.491,0.0
56460.0,STARLINK-6047,PAYLOAD,2024-04-27 21:54:28,14.9832931,0.000228,70.0008,60.8825,269.7756,90.3142,-1.9919e-06,-1.17e-06,0.0,0 STARLINK-6047,1 56460U 23064N   24118.91282435 -.00000117  00000-0 -19919-5 0  9991,2 56460  70.0008  60.8825 0002280 269.7756  90.3142 14.98329310 53277,6950.195,96.107,573.645,570.475,0.0
56460.0,STARLINK-6047,PAYLOAD,2024-04-28 04:19:00,14.98324316,0.0002784,70.0007,60.211,263.4772,96.607,-6.8001e-05,-9.04e-06,0.0,0 STARLINK-6047,1 56460U 23064N   24119.17986835 -.00000904  00000-0 -68001-4 0  9994,2 56460  70.0007  60.2110 0002784 263.4772  96.6070 14.98324316 53679,6950.21,96.107,574.01,570.141,0.0
56460.0,STARLINK-6047,PAYLOAD,2024-04-28 13:55:48,14.98325676,0.0002842,70.0006,59.2003,268.1751,91.9082,4.7994e-06,-3.6e-07,0.0,0 STARLINK-6047,1 56460U 23064N   24119.58042623 -.00000036  00000-0  47994-5 0  9991,2 56460  70.0006  59.2003 0002842 268.1751  91.9082 14.98325676 53379,6950.206,96.107,574.047,570.096,0.0
56460.0,STARLINK-6047,PAYLOAD,2024-04-28 20:20:20,14.98328951,0.0002871,70.0004,58.5265,268.6963,91.3867,3.9853e-05,3.83e-06,0.0,0 STARLINK-6047,1 56460U 23064N   24119.84746369  .00000383  00000-0  39853-4 0  9996,2 56460  70.0004  58.5265 0002871 268.6963  91.3867 14.98328951 53779,6950.196,96.107,574.057,570.066,0.0
